{"type": "FeatureCollection", "features": [ {"type": "Feature", "properties": {"norad_id": 47068, "name": "COSMOS 2251 DEB", "group": "cosmos-2251-debris", "lat": 63.8404415122958, "lon": -12.304795483307464, "alt_km": 721.7986657588335, "timestamp": "2025-12-12T18:57:44.527731+00:00", "meta": {"OBJECT_NAME": "COSMOS 2251 DEB", "OBJECT_ID": "1993-036BXY", "EPOCH": "2025-12-12T06:53:13.112448", "MEAN_MOTION": 14.53147025, "ECCENTRICITY": 0.00183376, "INCLINATION": 74.024, "RA_OF_ASC_NODE": 204.3241, "ARG_OF_PERICENTER": 291.4088, "MEAN_ANOMALY": 68.5117, "EPHEMERIS_TYPE": 0, "CLASSIFICATION_TYPE": "U", "NORAD_CAT_ID": 47068, "ELEMENT_SET_NO": 999, "REV_AT_EPOCH": 61750, "BSTAR": 0.0013365737, "MEAN_MOTION_DOT": 5.521e-05, "MEAN_MOTION_DDOT": 0}, "tle": {"line1": "1 47068U 93036BXY 25346.28695732  .00005521  00000+0  13366-2 0  9991", "line2": "2 47068  74.0240 204.3241 0018337 291.4088  68.5117 14.53147025617503"}}, "geometry": {"type": "Point", "coordinates": [-12.304795483307464, 63.8404415122958]}}, {"type": "Feature", "properties": {"norad_id": 47073, "name": "COSMOS 2251 DEB", "group": "cosmos-2251-debris", "lat": -73.83509720666065, "lon": 101.65637858224959, "alt_km": 779.4576375844472, "timestamp": "2025-12-12T18:57:44.527741+00:00", "meta": {"OBJECT_NAME": "COSMOS 2251 DEB", "OBJECT_ID": "1993-036BYD", "EPOCH": "2025-12-10T22:57:37.610784", "MEAN_MOTION": 14.04716581, "ECCENTRICITY": 0.0162103, "INCLINATION": 74.0823, "RA_OF_ASC_NODE": 204.9451, "ARG_OF_PERICENTER": 243.6176, "MEAN_ANOMALY": 114.8243, "EPHEMERIS_TYPE": 0, "CLASSIFICATION_TYPE": "U", "NORAD_CAT_ID": 47073, "ELEMENT_SET_NO": 999, "REV_AT_EPOCH": 60336, "BSTAR": 0.00063847, "MEAN_MOTION_DOT": 1.125e-05, "MEAN_MOTION_DDOT": 0}, "tle": {"line1": "1 47073U 93036BYD 25344.95668531  .00001125  00000+0  63847-3 0  9992", "line2": "2 47073  74.0823 204.9451 0162103 243.6176 114.8243 14.04716581603362"}}, "geometry": {"type": "Point", "coordinates": [101.65637858224959, -73.83509720666065]}}, {"type": "Feature", "properties": {"norad_id": 47074, "name": "COSMOS 2251 DEB", "group": "cosmos-2251-debris", "lat": 61.75339477997368, "lon": -19.313469712165546, "alt_km": 766.9244271417974, "timestamp": "2025-12-12T18:57:44.527752+00:00", "meta": {"OBJECT_NAME": "COSMOS 2251 DEB", "OBJECT_ID": "1993-036BYE", "EPOCH": "2025-12-08T16:49:34.505184", "MEAN_MOTION": 14.3557053, "ECCENTRICITY": 0.01448795, "INCLINATION": 74.0911, "RA_OF_ASC_NODE": 316.0985, "ARG_OF_PERICENTER": 343.8802, "MEAN_ANOMALY": 196.5757, "EPHEMERIS_TYPE": 0, "CLASSIFICATION_TYPE": "U", "NORAD_CAT_ID": 47074, "ELEMENT_SET_NO": 999, "REV_AT_EPOCH": 2624, "BSTAR": 0.0031554894, "MEAN_MOTION_DOT": 0.00010228, "MEAN_MOTION_DDOT": 0}, "tle": {"line1": "1 47074U 93036BYE 25342.70109381  .00010228  00000+0  31555-2 0  9991", "line2": "2 47074  74.0911 316.0985 0144879 343.8802 196.5757 14.35570530 26246"}}, "geometry": {"type": "Point", "coordinates": [-19.313469712165546, 61.75339477997368]}}, {"type": "Feature", "properties": {"norad_id": 47116, "name": "COSMOS 2251 DEB", "group": "cosmos-2251-debris", "lat": -69.62846401486284, "lon": -169.8780941286377, "alt_km": 570.0852810601937, "timestamp": "2025-12-12T18:57:44.527763+00:00", "meta": {"OBJECT_NAME": "COSMOS 2251 DEB", "OBJECT_ID": "1993-036BYJ", "EPOCH": "2025-12-11T00:06:23.501088", "MEAN_MOTION": 14.98044349, "ECCENTRICITY": 0.00215318, "INCLINATION": 74.0231, "RA_OF_ASC_NODE": 244.2359, "ARG_OF_PERICENTER": 338.282, "MEAN_ANOMALY": 38.4094, "EPHEMERIS_TYPE": 0, "CLASSIFICATION_TYPE": "U", "NORAD_CAT_ID": 47116, "ELEMENT_SET_NO": 999, "REV_AT_EPOCH": 59485, "BSTAR": 0.0031113289, "MEAN_MOTION_DOT": 0.0003712, "MEAN_MOTION_DDOT": 0}, "tle": {"line1": "1 47116U 93036BYJ 25345.00443867  .00037120  00000+0  31113-2 0  9994", "line2": "2 47116  74.0231 244.2359 0021531 338.2820  38.4094 14.98044349594850"}}, "geometry": {"type": "Point", "coordinates": [-169.8780941286377, -69.62846401486284]}}, {"type": "Feature", "properties": {"norad_id": 53093, "name": "COSMOS 2251 DEB", "group": "cosmos-2251-debris", "lat": 72.34121729422942, "lon": 57.31580055154014, "alt_km": 742.3837775249795, "timestamp": "2025-12-12T18:57:44.527773+00:00", "meta": {"OBJECT_NAME": "COSMOS 2251 DEB", "OBJECT_ID": "1993-036BYP", "EPOCH": "2025-12-12T06:51:23.584896", "MEAN_MOTION": 14.41877265, "ECCENTRICITY": 0.00191574, "INCLINATION": 74.0365, "RA_OF_ASC_NODE": 302.2965, "ARG_OF_PERICENTER": 19.5085, "MEAN_ANOMALY": 340.68, "EPHEMERIS_TYPE": 0, "CLASSIFICATION_TYPE": "U", "NORAD_CAT_ID": 53093, "ELEMENT_SET_NO": 999, "REV_AT_EPOCH": 17719, "BSTAR": 0.0014794086, "MEAN_MOTION_DOT": 4.829e-05, "MEAN_MOTION_DDOT": 0}, "tle": {"line1": "1 53093U 93036BYP 25346.28568964  .00004829  00000+0  14794-2 0  9998", "line2": "2 53093  74.0365 302.2965 0019157  19.5085 340.6800 14.41877265177196"}}, "geometry": {"type": "Point", "coordinates": [57.31580055154014, 72.34121729422942]}}]}